COMMENT,ORIGINATOR,NORAD_CAT_ID,OBJECT_NAME,OBJECT_TYPE,CLASSIFICATION_TYPE,INTLDES,EPOCH,EPOCH_MICROSECONDS,MEAN_MOTION,ECCENTRICITY,INCLINATION,RA_OF_ASC_NODE,ARG_OF_PERICENTER,MEAN_ANOMALY,EPHEMERIS_TYPE,ELEMENT_SET_NO,REV_AT_EPOCH,BSTAR,MEAN_MOTION_DOT,MEAN_MOTION_DDOT,FILE,TLE_LINE0,TLE_LINE1,TLE_LINE2,OBJECT_ID,OBJECT_NUMBER,SEMIMAJOR_AXIS,PERIOD,APOGEE,PERIGEE,DECAYED
"GENERATED VIA SPACETRACK.ORG API","18 SPCS","48894","SPACEBEE-107","PAYLOAD","U","21059R","2022-08-12 07:11:55","694688","15.17019048","0.0007342","97.564","353.9088","272.3062","87.733","0","999","6240","0.00047352","0.00009304","0","3535350","0 SPACEBEE-107","1 48894U 21059R   22224.29995017  .00009304  00000-0  47352-3 0  9994","2 48894  97.5640 353.9088 0007342 272.3062  87.7330 15.17019048 62406","2021-059R","48894","6892.993","94.923","519.919","509.797","1"
"GENERATED VIA SPACETRACK.ORG API","18 SPCS","48894","SPACEBEE-107","PAYLOAD","U","21059R","2022-08-12 15:06:50","651424","15.1702337","0.0007337","97.5643","354.2379","270.9668","89.0725","0","999","6245","0.00042539","0.00008351","0","3535418","0 SPACEBEE-107","1 48894U 21059R   22224.62975291  .00008351  00000-0  42539-3 0  9996","2 48894  97.5643 354.2379 0007337 270.9668  89.0725 15.17023370 62457","2021-059R","48894","6892.980","94.923","519.902","509.787","1"
"GENERATED VIA SPACETRACK.ORG API","18 SPCS","48894","SPACEBEE-107","PAYLOAD","U","21059R","2022-08-12 19:51:47","543040","15.17027856","0.0007316","97.5643","354.4354","270.1813","89.8581","0","999","6248","0.00043677","0.00008578","0","3535519","0 SPACEBEE-107","1 48894U 21059R   22224.82763360  .00008578  00000-0  43677-3 0  9995","2 48894  97.5643 354.4354 0007316 270.1813  89.8581 15.17027856 62487","2021-059R","48894","6892.966","94.922","519.874","509.788","1"
"GENERATED VIA SPACETRACK.ORG API","18 SPCS","48894","SPACEBEE-107","PAYLOAD","U","21059R","2022-08-13 08:31:39","128736","15.17035551","0.0007313","97.5645","354.962","268.0106","92.0289","0","999","6256","0.00038332","0.0000752","0","3535824","0 SPACEBEE-107","1 48894U 21059R   22225.35531399  .00007520  00000-0  38332-3 0  9997","2 48894  97.5645 354.9620 0007313 268.0106  92.0289 15.17035551 62569","2021-059R","48894","6892.943","94.922","519.849","509.767","1"
"GENERATED VIA SPACETRACK.ORG API","18 SPCS","48894","SPACEBEE-107","PAYLOAD","U","21059R","2022-08-13 21:11:30","418944","15.17045397","0.0007312","97.5646","355.4886","265.8356","94.2042","0","999","6264","0.00039598","0.00007773","0","3535825","0 SPACEBEE-107","1 48894U 21059R   22225.88299096  .00007773  00000-0  39598-3 0  9995","2 48894  97.5646 355.4886 0007312 265.8356  94.2042 15.17045397 62640","2021-059R","48894","6892.913","94.921","519.818","509.738","1"
"GENERATED VIA SPACETRACK.ORG API","18 SPCS","48894","SPACEBEE-107","PAYLOAD","U","21059R","2022-08-14 08:16:22","604448","15.1705278","0.0007335","97.5646","355.9494","263.9889","96.0509","0","999","6271","0.00039304","0.00007717","0","3536350","0 SPACEBEE-107","1 48894U 21059R   22226.34470607  .00007717  00000-0  39304-3 0  9999","2 48894  97.5646 355.9494 0007335 263.9889  96.0509 15.17052780 62715","2021-059R","48894","6892.891","94.921","519.811","509.700","1"
"GENERATED VIA SPACETRACK.ORG API","18 SPCS","48894","SPACEBEE-107","PAYLOAD","U","21059R","2022-08-14 19:21:14","593824","15.17059973","0.0007354","97.5646","356.4102","262.1425","97.8973","0","999","6278","0.00037678","0.00007396","0","3536615","0 SPACEBEE-107","1 48894U 21059R   22226.80641891  .00007396  00000-0  37678-3 0  9990","2 48894  97.5646 356.4102 0007354 262.1425  97.8973 15.17059973 62787","2021-059R","48894","6892.869","94.920","519.803","509.665","1"
"GENERATED VIA SPACETRACK.ORG API","18 SPCS","48894","SPACEBEE-107","PAYLOAD","U","21059R","2022-08-14 20:56:13","431552","15.17061028","0.0007358","97.5646","356.476","261.8619","98.1779","0","999","6279","0.00037575","0.00007376","0","3536709","0 SPACEBEE-107","1 48894U 21059R   22226.87237768  .00007376  00000-0  37575-3 0  9995","2 48894  97.5646 356.4760 0007358 261.8619  98.1779 15.17061028 62795","2021-059R","48894","6892.866","94.920","519.802","509.659","1"
"GENERATED VIA SPACETRACK.ORG API","18 SPCS","48894","SPACEBEE-107","PAYLOAD","U","21059R","2022-08-15 08:01:05","229984","15.17067159","0.0007392","97.5645","356.9368","260.0542","99.9857","0","999","6286","0.0003514","0.00006894","0","3537056","0 SPACEBEE-107","1 48894U 21059R   22227.33408831  .00006894  00000-0  35140-3 0  9998","2 48894  97.5645 356.9368 0007392 260.0542  99.9857 15.17067159 62862","2021-059R","48894","6892.847","94.920","519.807","509.617","1"
"GENERATED VIA SPACETRACK.ORG API","18 SPCS","48894","SPACEBEE-107","PAYLOAD","U","21059R","2022-08-15 14:21:00","450432","15.17072474","0.000742","97.5645","357.2002","258.9042","101.1357","0","999","6290","0.00039742","0.00007808","0","3537378","0 SPACEBEE-107","1 48894U 21059R   22227.59792188  .00007808  00000-0  39742-3 0  9995","2 48894  97.5645 357.2002 0007420 258.9042 101.1357 15.17072474 62906","2021-059R","48894","6892.831","94.920","519.810","509.581","1"
"GENERATED VIA SPACETRACK.ORG API","18 SPCS","48894","SPACEBEE-107","PAYLOAD","U","21059R","2022-08-16 07:45:47","29536","15.17083342","0.0007463","97.5645","357.9243","256.2238","103.8164","0","999","6301","0.00040052","0.00007872","0","3537804","0 SPACEBEE-107","1 48894U 21059R   22228.32346099  .00007872  00000-0  40052-3 0  9990","2 48894  97.5645 357.9243 0007463 256.2238 103.8164 15.17083342 63019","2021-059R","48894","6892.798","94.919","519.807","509.519","1"
"GENERATED VIA SPACETRACK.ORG API","18 SPCS","48894","SPACEBEE-107","PAYLOAD","U","21059R","2022-08-16 07:45:47","29536","15.17083342","0.0007463","97.5645","357.9243","256.2238","103.8164","0","999","6301","0.00040052","0.00007872","0","3537973","0 SPACEBEE-107","1 48894U 21059R   22228.32346099  .00007872  00000-0  40052-3 0  9990","2 48894  97.5645 357.9243 0007463 256.2238 103.8164 15.17083342 63019","2021-059R","48894","6892.798","94.919","519.807","509.519","1"
"GENERATED VIA SPACETRACK.ORG API","18 SPCS","48894","SPACEBEE-107","PAYLOAD","U","21059R","2022-08-17 07:30:27","981504","15.17099178","0.0007516","97.5644","358.9118","252.3041","107.7372","0","999","6316","0.00042556","0.00008373","0","3538809","0 SPACEBEE-107","1 48894U 21059R   22229.31282386  .00008373  00000-0  42556-3 0  9996","2 48894  97.5644 358.9118 0007516 252.3041 107.7372 15.17099178 63162","2021-059R","48894","6892.750","94.918","519.796","509.434","1"
"GENERATED VIA SPACETRACK.ORG API","18 SPCS","48894","SPACEBEE-107","PAYLOAD","U","21059R","2022-08-18 07:15:07","836192","15.17124128","0.0007532","97.5643","359.8991","248.4471","111.596","0","999","6331","0.0006384","0.00012611","0","3539281","0 SPACEBEE-107","1 48894U 21059R   22230.30217403  .00012611  00000-0  63840-3 0  9994","2 48894  97.5643 359.8991 0007532 248.4471 111.5960 15.17124128 63318","2021-059R","48894","6892.674","94.916","519.731","509.348","1"
"GENERATED VIA SPACETRACK.ORG API","18 SPCS","48894","SPACEBEE-107","PAYLOAD","U","21059R","2022-08-18 07:15:07","836192","15.17124128","0.0007532","97.5643","359.8991","248.4471","111.596","0","999","6331","0.0006384","0.00012611","0","3539408","0 SPACEBEE-107","1 48894U 21059R   22230.30217403  .00012611  00000-0  63840-3 0  9994","2 48894  97.5643 359.8991 0007532 248.4471 111.5960 15.17124128 63318","2021-059R","48894","6892.674","94.916","519.731","509.348","1"
"GENERATED VIA SPACETRACK.ORG API","18 SPCS","48894","SPACEBEE-107","PAYLOAD","U","21059R","2022-08-19 08:34:45","14016","15.17144283","0.0007472","97.5644","0.9527","243.1519","116.8951","0","999","6347","0.00054623","0.00010784","0","3540129","0 SPACEBEE-107","1 48894U 21059R   22231.35746544  .00010784  00000-0  54623-3 0  9991","2 48894  97.5644   0.9527 0007472 243.1519 116.8951 15.17144283 63475","2021-059R","48894","6892.613","94.915","519.629","509.328","1"
"GENERATED VIA SPACETRACK.ORG API","18 SPCS","48894","SPACEBEE-107","PAYLOAD","U","21059R","2022-08-19 08:34:45","14016","15.17144283","0.0007472","97.5644","0.9527","243.1519","116.8951","0","999","6347","0.00054623","0.00010784","0","3540406","0 SPACEBEE-107","1 48894U 21059R   22231.35746544  .00010784  00000-0  54623-3 0  9991","2 48894  97.5644   0.9527 0007472 243.1519 116.8951 15.17144283 63475","2021-059R","48894","6892.613","94.915","519.629","509.328","1"
"GENERATED VIA SPACETRACK.ORG API","18 SPCS","48894","SPACEBEE-107","PAYLOAD","U","21059R","2022-08-20 08:19:22","507392","15.17161885","0.0007506","97.564","1.9397","238.755","121.2948","0","999","6362","0.00047589","0.0000939","0","3541419","0 SPACEBEE-107","1 48894U 21059R   22232.34678828  .00009390  00000-0  47589-3 0  9994","2 48894  97.5640   1.9397 0007506 238.7550 121.2948 15.17161885 63620","2021-059R","48894","6892.560","94.914","519.599","509.252","1"
"GENERATED VIA SPACETRACK.ORG API","18 SPCS","48894","SPACEBEE-107","PAYLOAD","U","21059R","2022-08-20 20:59:10","180896","15.17166201","0.0007609","97.5641","2.4664","237.6146","122.4351","0","999","6370","0.00032821","0.00006453","0","3541593","0 SPACEBEE-107","1 48894U 21059R   22232.87442339  .00006453  00000-0  32821-3 0  9998","2 48894  97.5641   2.4664 0007609 237.6146 122.4351 15.17166201 63704","2021-059R","48894","6892.547","94.914","519.657","509.167","1"
"GENERATED VIA SPACETRACK.ORG API","18 SPCS","48894","SPACEBEE-107","PAYLOAD","U","21059R","2022-08-20 20:59:10","180896","15.17166201","0.0007609","97.5641","2.4664","237.6146","122.4351","0","999","6370","0.00032821","0.00006453","0","3541760","0 SPACEBEE-107","1 48894U 21059R   22232.87442339  .00006453  00000-0  32821-3 0  9998","2 48894  97.5641   2.4664 0007609 237.6146 122.4351 15.17166201 63704","2021-059R","48894","6892.547","94.914","519.657","509.167","1"
